ORBCOMM FM37            
1 33064U 08031E   26007.54017199  .00002003  00000+0  28480-3 0  9998
2 33064  48.4392  91.4943 0005102 184.0933 190.0504 14.80733610944328
ORBCOMM FM40            
1 33065U 08031F   26007.61605692  .00002544  00000+0  33388-3 0  9991
2 33065  48.4412  71.5604 0006215 200.1322 281.2401 14.83277315944498
VESSELSAT 1             
1 37840U 11058C   26007.49264634  .00000383  00000+0  64023-4 0  9992
2 37840  19.9627 297.5911 0013510 273.9582  85.9278 14.11405076735203
ORBCOMM FM109           
1 40086U 14040A   26007.62061564  .00000876  00000+0  22266-3 0  9993
2 40086  47.0027 130.5072 0002245 216.9118 143.1613 14.58599582610900
ORBCOMM FM107           
1 40087U 14040B   26007.63855239  .00000933  00000+0  23438-3 0  9991
2 40087  47.0043 131.3004 0001037 182.4218 177.6663 14.58675881610981
ORBCOMM FM106           
1 40088U 14040C   26007.51112914  .00001289  00000+0  24294-3 0  9991
2 40088  47.0601 297.4883 0017149 296.4176  63.4955 14.70121085613537
ORBCOMM FM111           
1 40089U 14040D   26007.33992812  .00003300  00000+0  37771-3 0  9995
2 40089  46.9998 120.2718 0027628  91.5585 268.8478 14.87907367620617
ORBCOMM FM104           
1 40090U 14040E   26007.71576684  .00000736  00000+0  19932-3 0  9993
2 40090  47.0033 167.0223 0015623  59.6428 300.5999 14.57056265610445
